OBJECT_NAME,OBJECT_ID,EPOCH,MEAN_MOTION,ECCENTRICITY,INCLINATION,RA_OF_ASC_NODE,ARG_OF_PERICENTER,MEAN_ANOMALY,EPHEMERIS_TYPE,CLASSIFICATION_TYPE,NORAD_CAT_ID,ELEMENT_SET_NO,REV_AT_EPOCH,BSTAR,MEAN_MOTION_DOT,MEAN_MOTION_DDOT
GAOFEN-11 01,2018-063A,2026-06-22T20:02:20.565600,15.55425558,.00025287,97.1290,240.6984,332.4461,27.6660,0,U,43585,999,44122,.14934789E-3,.10072E-3,0
ICESAT-2,2018-070A,2026-06-22T18:51:55.755072,15.28366801,.00061314,92.0078,292.4920,95.4357,264.7592,0,U,43613,999,43331,.26723304E-3,.7383E-4,0
HYSIS,2018-096A,2026-06-22T19:52:35.477760,14.78627217,.00018228,97.9833,240.5323,95.9653,264.1766,0,U,43719,999,40825,.16548216E-3,.116E-4,0
KAZSTSAT,2018-099AB,2026-06-22T12:01:56.309952,14.99881693,.00086293,97.4277,205.1882,55.5709,304.6330,0,U,43783,999,41210,.12386262E-3,.148E-4,0
SAUDISAT 5A,2018-102A,2026-06-22T20:41:12.657984,15.28096748,.00112764,97.3066,235.3336,111.7505,248.4937,0,U,43831,999,41654,.16130732E-3,.4353E-4,0
SAUDISAT 5B,2018-102C,2026-06-22T19:32:42.046656,15.28350209,.00119564,97.3174,238.3669,113.8801,246.3693,0,U,43833,999,41665,.14519669E-3,.3942E-4,0
GAOFEN-10R,2019-066A,2026-06-22T19:42:31.106304,14.83070801,.00069486,98.0504,127.4417,112.5418,247.6532,0,U,44622,999,36321,.10557466E-3,.805E-5,0
CARTOSAT-3,2019-081A,2026-06-22T19:42:54.830880,15.19313490,.0013712,97.4303,235.5984,130.1474,230.0964,0,U,44804,999,36432,.13373313E-3,.2761E-4,0
GAOFEN-12 01,2019-082A,2026-06-22T19:47:32.517888,14.80462099,.00020896,97.8101,180.0553,64.0491,296.0936,0,U,44819,999,35492,.40898084E-4,.262E-5,0
CSG-1,2019-092A,2026-06-22T18:57:13.809024,14.82156856,.00014661,97.8891,357.3110,89.7452,270.3929,0,U,44873,999,35230,.39575435E-4,.263E-5,0
NEMO-HD,2020-061F,2026-06-22T19:56:05.241408,15.44690753,.0002055,97.1917,235.7268,77.1396,283.0082,0,U,46277,999,32285,.18322611E-3,.8462E-4,0
SENTINEL-6A,2020-086A,2026-06-22T13:13:09.048288,12.80929945,.0007897,66.0403,123.9121,270.1468,89.8643,0,U,46984,999,26101,.401525E-4,-.52E-6,0
CAS500-1,2021-022A,2026-06-22T20:32:04.877664,15.20186146,.00032144,97.3894,68.9940,269.8637,90.2230,0,U,47932,999,29162,.23628235E-3,.5049E-4,0
GAOFEN-12 02,2021-026A,2026-06-22T20:04:20.214048,14.80299540,.00040813,97.9923,171.9939,199.8059,160.2995,0,U,48079,999,28259,.38775483E-4,.243E-5,0
PLEIADES NEO 3,2021-034A,2026-06-22T20:36:00.665856,14.81675327,.00013904,97.8927,248.5436,88.3144,271.8228,0,U,48268,999,27849,.95947575E-4,.703E-5,0
PLEIADES NEO 4,2021-073E,2026-06-22T19:47:22.365024,14.81671283,.00013337,97.8928,248.5065,87.7167,272.4198,0,U,49070,999,26220,.90335286E-4,.659E-5,0
LANDSAT 9,2021-088A,2026-06-22T11:37:08.167584,14.57100046,.00013247,98.2278,243.5974,84.8984,275.2366,0,U,49260,999,25177,.59244278E-4,.221E-5,0
CSG-2,2022-008A,2026-06-22T19:45:47.712096,14.82161045,.0001553,97.8894,357.3394,88.6827,271.4564,0,U,51444,999,23742,.84258053E-4,.619E-5,0
GAOFEN-12 03,2022-069A,2026-06-22T20:48:51.493824,14.80042977,.00022765,97.8271,61.5938,97.6205,262.5266,0,U,52912,999,21545,.11815815E-3,.844E-5,0
SWOT,2022-173A,2026-06-22T20:20:24.419904,14.00170220,.00003002,77.6104,27.6687,93.5360,266.5826,0,U,54754,999,17994,.66471678E-4,.95E-6,0
GAOFEN-12 04,2023-123A,2026-06-22T21:11:47.246208,14.80237439,.0001759,97.9119,91.8192,80.4953,279.6458,0,U,57654,999,15347,.95974661E-4,.678E-5,0
PARS 1,2024-039Q,2026-06-22T19:36:26.190720,15.45825881,.00115312,97.4826,154.9139,94.9657,265.2909,0,U,59065,999,12951,.1909185E-3,.9186E-4,0
RESURS-P 4,2024-061A,2026-06-22T21:06:58.875840,15.32158526,.00025517,97.2749,121.6791,120.2019,239.9476,0,U,59371,999,12463,.8073389E-4,.2431E-4,0
LEGION 1,2024-081A,2026-06-22T20:02:15.393696,15.16698025,.0008955,97.5015,251.6316,358.6298,1.4909,0,U,59625,999,11839,.15183515E-3,.2909E-4,0
LEGION 2,2024-081B,2026-06-22T19:10:32.068992,15.16676211,.00103078,97.5015,251.6935,322.6258,37.4257,0,U,59626,999,11839,.13356447E-3,.255E-4,0
ALOS-4 (DAICHI-4),2024-123A,2026-06-22T20:09:08.423712,14.79465462,.00015815,97.9249,270.9344,97.7116,262.4275,0,U,60182,999,10671,.10420965E-3,.727E-5,0
LEGION 3,2024-146A,2026-06-22T19:08:36.825216,15.16076180,.00083338,45.0030,0.4643,201.9840,158.0682,0,U,60452,999,10287,.18478886E-3,.3356E-4,0
LEGION 4,2024-146B,2026-06-22T19:13:07.466304,15.16070129,.00131963,45.0016,92.3580,338.0508,21.9804,0,U,60453,999,10172,.16437349E-3,.2957E-4,0
SENTINEL-2C,2024-157A,2026-06-22T11:41:36.500928,14.30819035,.00009725,98.5691,248.1944,84.9038,275.2256,0,U,60989,999,9374,.38851421E-4,.58E-6,0
IONOSFERA-M 1,2024-199A,2026-06-22T19:40:36.275520,14.22755175,.00020651,98.7168,46.9324,102.6026,257.5383,0,U,61735,999,12850,.28341222E-4,.2E-6,0
