GAOFEN-11 01            
1 43585U 18063A   26173.83496025  .00010072  00000+0  14935-3 0  9993
2 43585  97.1290 240.6984 0002528 332.4461  27.6660 15.55425558441223
ICESAT-2                
1 43613U 18070A   26173.78606198  .00007383  00000+0  26723-3 0  9990
2 43613  92.0078 292.4920 0006131  95.4357 264.7592 15.28366801433316
HYSIS                   
1 43719U 18096A   26173.82818840  .00001160  00000+0  16548-3 0  9990
2 43719  97.9833 240.5323 0001822  95.9653 264.1766 14.78627217408250
KAZSTSAT                
1 43783U 18099AB  26173.50134618  .00001480  00000+0  12386-3 0  9994
2 43783  97.4277 205.1882 0008629  55.5709 304.6330 14.99881693412100
SAUDISAT 5A             
1 43831U 18102A   26173.86195206  .00004353  00000+0  16131-3 0  9996
2 43831  97.3066 235.3336 0011276 111.7505 248.4937 15.28096748416541
SAUDISAT 5B             
1 43833U 18102C   26173.81437554  .00003942  00000+0  14520-3 0  9991
2 43833  97.3174 238.3669 0011956 113.8801 246.3693 15.28350209416655
GAOFEN-10R              
1 44622U 19066A   26173.82119336  .00000805  00000+0  10557-3 0  9995
2 44622  98.0504 127.4417 0006948 112.5418 247.6532 14.83070801363217
CARTOSAT-3              
1 44804U 19081A   26173.82146795  .00002761  00000+0  13373-3 0  9995
2 44804  97.4303 235.5984 0013712 130.1474 230.0964 15.19313490364326
GAOFEN-12 01            
1 44819U 19082A   26173.82468192  .00000262  00000+0  40898-4 0  9997
2 44819  97.8101 180.0553 0002089  64.0491 296.0936 14.80462099354920
CSG-1                   
1 44873U 19092A   26173.78974316  .00000263  00000+0  39575-4 0  9994
2 44873  97.8891 357.3110 0001466  89.7452 270.3929 14.82156856352303
NEMO-HD                 
1 46277U 20061F   26173.83061622  .00008462  00000+0  18323-3 0  9991
2 46277  97.1917 235.7268 0002055  77.1396 283.0082 15.44690753322857
SENTINEL-6A             
1 46984U 20086A   26173.55079917 -.00000052  00000+0  40153-4 0  9993
2 46984  66.0403 123.9121 0007897 270.1468  89.8643 12.80929945261017
CAS500-1                
1 47932U 21022A   26173.85561201  .00005049  00000+0  23628-3 0  9990
2 47932  97.3894  68.9940 0003214 269.8637  90.2230 15.20186146291624
GAOFEN-12 02            
1 48079U 21026A   26173.83634507  .00000243  00000+0  38775-4 0  9996
2 48079  97.9923 171.9939 0004081 199.8059 160.2995 14.80299540282592
PLEIADES NEO 3          
1 48268U 21034A   26173.85834104  .00000703  00000+0  95948-4 0  9998
2 48268  97.8927 248.5436 0001390  88.3144 271.8228 14.81675327278499
PLEIADES NEO 4          
1 49070U 21073E   26173.82456441  .00000659  00000+0  90335-4 0  9999
2 49070  97.8928 248.5065 0001333  87.7167 272.4198 14.81671283262207
LANDSAT 9               
1 49260U 21088A   26173.48412231  .00000221  00000+0  59244-4 0  9996
2 49260  98.2278 243.5974 0001324  84.8984 275.2366 14.57100046251775
CSG-2                   
1 51444U 22008A   26173.82346889  .00000619  00000+0  84258-4 0  9993
2 51444  97.8894 357.3394 0001553  88.6827 271.4564 14.82161045237421
GAOFEN-12 03            
1 52912U 22069A   26173.86726266  .00000844  00000+0  11816-3 0  9995
2 52912  97.8271  61.5938 0002276  97.6205 262.5266 14.80042977215451
SWOT                    
1 54754U 22173A   26173.84750486  .00000095  00000+0  66472-4 0  9993
2 54754  77.6104  27.6687 0000300  93.5360 266.5826 14.00170220179949
GAOFEN-12 04            
1 57654U 23123A   26173.88318572  .00000678  00000+0  95975-4 0  9998
2 57654  97.9119  91.8192 0001759  80.4953 279.6458 14.80237439153478
PARS 1                  
1 59065U 24039Q   26173.81696980  .00009186  00000+0  19092-3 0  9996
2 59065  97.4826 154.9139 0011531  94.9657 265.2909 15.45825881129514
RESURS-P 4              
1 59371U 24061A   26173.87984810  .00002431  00000+0  80734-4 0  9997
2 59371  97.2749 121.6791 0002551 120.2019 239.9476 15.32158526124634
LEGION 1                
1 59625U 24081A   26173.83490039  .00002909  00000+0  15184-3 0  9998
2 59625  97.5015 251.6316 0008955 358.6298   1.4909 15.16698025118396
LEGION 2                
1 59626U 24081B   26173.79898228  .00002550  00000+0  13356-3 0  9997
2 59626  97.5015 251.6935 0010307 322.6258  37.4257 15.16676211118393
ALOS-4 (DAICHI-4)       
1 60182U 24123A   26173.83968083  .00000727  00000+0  10421-3 0  9999
2 60182  97.9249 270.9344 0001581  97.7116 262.4275 14.79465462106715
LEGION 3                
1 60452U 24146A   26173.79764844  .00003356  00000+0  18479-3 0  9990
2 60452  45.0030   0.4643 0008333 201.9840 158.0682 15.16076180102872
LEGION 4                
1 60453U 24146B   26173.80078086  .00002957  00000+0  16437-3 0  9997
2 60453  45.0016  92.3580 0013196 338.0508  21.9804 15.16070129101727
SENTINEL-2C             
1 60989U 24157A   26173.48722802  .00000058  00000+0  38851-4 0  9994
2 60989  98.5691 248.1944 0000972  84.9038 275.2256 14.30819035 93740
IONOSFERA-M 1           
1 61735U 24199A   26173.81986430  .00000020  00000+0  28341-4 0  9998
2 61735  98.7168  46.9324 0002065 102.6026 257.5383 14.22755175128509
